CS1                     
1 49261U 21088B   26068.75173904  .00015722  00000+0  51176-3 0  9998
2 49261  97.3882 132.1684 0014129  78.0335 282.2490 15.31848439245182
STARLINK-31015          
1 58521U 23191P   26068.80543764  .00023376  00000+0  87806-3 0  9998
2 58521  42.9962 102.3866 0000772 289.0171  71.0596 15.26752131125464
